NORAD_CAT_ID,OBJECT_NAME,OBJECT_TYPE,EPOCH,MEAN_MOTION,ECCENTRICITY,INCLINATION,RA_OF_ASC_NODE,ARG_OF_PERICENTER,MEAN_ANOMALY,BSTAR,MEAN_MOTION_DOT,MEAN_MOTION_DDOT,TLE_LINE0,TLE_LINE1,TLE_LINE2,SEMIMAJOR_AXIS,PERIOD,APOGEE,PERIGEE,DECAYED
52873.0,STARLINK-4211,PAYLOAD,2022-11-15 13:11:17,15.08834524,0.0001923,53.2187,46.649,43.7025,316.4119,0.00010231,1.34e-05,0.0,0 STARLINK-4211,1 52873U 22062AV  22319.54950620  .00001340  00000-0  10231-3 0  9993,2 52873  53.2187  46.6490 0001923  43.7025 316.4119 15.08834524 23378,6917.897,95.438,541.092,538.432,0.0
52873.0,STARLINK-4211,PAYLOAD,2022-11-16 09:51:18,15.08830959,0.0001838,53.2187,42.7839,45.7635,314.3508,7.3409e-05,8.8e-06,0.0,0 STARLINK-4211,1 52873U 22062AV  22320.41063409  .00000880  00000-0  73409-4 0  9996,2 52873  53.2187  42.7839 0001838  45.7635 314.3508 15.08830959 23991,6917.908,95.438,541.045,538.502,0.0
52873.0,STARLINK-4211,PAYLOAD,2022-11-17 09:42:06,15.08834323,0.0001898,53.2189,38.3242,42.7335,317.3805,3.0347e-05,1.95e-06,0.0,0 STARLINK-4211,1 52873U 22062AV  22321.40423674  .00000195  00000-0  30347-4 0  9993,2 52873  53.2189  38.3242 0001898  42.7335 317.3805 15.08834323 23657,6917.898,95.438,541.076,538.45,0.0
52873.0,STARLINK-4211,PAYLOAD,2022-11-17 12:52:52,15.08836893,0.000193,53.2189,37.7294,43.2609,316.8534,5.132e-05,5.29e-06,0.0,0 STARLINK-4211,1 52873U 22062AV  22321.53671488  .00000529  00000-0  51320-4 0  9990,2 52873  53.2189  37.7294 0001930  43.2609 316.8534 15.08836893 24168,6917.89,95.438,541.09,538.42,0.0
52873.0,STARLINK-4211,PAYLOAD,2022-11-18 07:57:29,15.08837465,0.0001994,53.2189,34.1608,44.6176,315.4977,5.919e-05,6.54e-06,0.0,0 STARLINK-4211,1 52873U 22062AV  22322.33159419  .00000654  00000-0  59190-4 0  9996,2 52873  53.2189  34.1608 0001994  44.6176 315.4977 15.08837465 23792,6917.888000000001,95.438,541.133,538.374,0.0
52873.0,STARLINK-4211,PAYLOAD,2022-11-18 09:32:52,15.08838579,0.0001967,53.2189,33.8636,44.1231,315.9917,6.8833e-05,8.07e-06,0.0,0 STARLINK-4211,1 52873U 22062AV  22322.39783330  .00000807  00000-0  68833-4 0  9991,2 52873  53.2189  33.8636 0001967  44.1231 315.9917 15.08838579 23804,6917.885,95.438,541.11,538.389,0.0
52873.0,STARLINK-4211,PAYLOAD,2022-11-19 04:37:29,15.08844707,0.0001957,53.2188,30.2944,47.676,312.4398,8.209e-05,1.019e-05,0.0,0 STARLINK-4211,1 52873U 22062AV  22323.19270801  .00001019  00000-0  82090-4 0  9991,2 52873  53.2188  30.2944 0001957  47.6760 312.4398 15.08844707 24413,6917.866,95.437,541.085,538.377,0.0
52873.0,STARLINK-4211,PAYLOAD,2022-11-19 10:59:02,15.08842741,0.0001954,53.2188,29.1043,49.1531,310.963,5.9111e-05,6.53e-06,0.0,0 STARLINK-4211,1 52873U 22062AV  22323.45766937  .00000653  00000-0  59111-4 0  9991,2 52873  53.2188  29.1043 0001954  49.1531 310.9630 15.08842741 23967,6917.871999999999,95.437,541.089,538.385,0.0
52873.0,STARLINK-4211,PAYLOAD,2022-11-20 01:17:30,15.08841918,0.0001965,53.2192,26.4293,38.6123,321.5009,-5.7223e-06,-3.79e-06,0.0,0 STARLINK-4211,1 52873U 22062AV  22324.05383055 -.00000379  00000-0 -57223-5 0  9994,2 52873  53.2192  26.4293 0001965  38.6123 321.5009 15.08841918 24549,6917.875,95.437,541.099,538.38,0.0
52873.0,STARLINK-4211,PAYLOAD,2022-11-20 10:49:49,15.08844077,0.0001968,53.2189,24.6452,39.2524,320.861,1.7938e-05,-3e-08,0.0,0 STARLINK-4211,1 52873U 22062AV  22324.45126802 -.00000003  00000-0  17938-4 0  9994,2 52873  53.2189  24.6452 0001968  39.2524 320.8610 15.08844077 24119,6917.868,95.437,541.094,538.371,0.0
52873.0,STARLINK-4211,PAYLOAD,2022-11-20 14:00:36,15.08832589,0.0001931,53.2196,24.0524,32.9471,327.1641,0.00010267,1.346e-05,0.0,0 STARLINK-4211,1 52873U 22062AV  22324.58375149  .00001346  00000-0  10267-3 0  9995,2 52873  53.2196  24.0524 0001931  32.9471 327.1641 15.08832589 24133,6917.903,95.438,541.104,538.432,0.0
52873.0,STARLINK-4211,PAYLOAD,2022-11-21 04:19:04,15.08832538,0.0001935,53.2197,21.3755,34.0513,326.0603,-5.3184e-05,-1.134e-05,0.0,0 STARLINK-4211,1 52873U 22062AV  22325.17991721 -.00001134  00000-0 -53184-4 0  9994,2 52873  53.2197  21.3755 0001935  34.0513 326.0603 15.08832538 24718,6917.903,95.438,541.107,538.43,0.0
52873.0,STARLINK-4211,PAYLOAD,2022-11-21 09:05:13,15.08840372,0.0001964,53.2192,20.4825,40.0841,320.0295,1.6017999999999998e-05,-3.3e-07,0.0,0 STARLINK-4211,1 52873U 22062AV  22325.37863026 -.00000033  00000-0  16018-4 0  9993,2 52873  53.2192  20.4825 0001964  40.0841 320.0295 15.08840372 24743,6917.879,95.438,541.1030000000002,538.386,0.0
52873.0,STARLINK-4211,PAYLOAD,2022-11-21 10:40:36,15.08842816,0.0001973,53.2192,20.185,41.7127,318.4016,3.732e-05,3.06e-06,0.0,0 STARLINK-4211,1 52873U 22062AV  22325.44486784  .00000306  00000-0  37320-4 0  9994,2 52873  53.2192  20.1850 0001973  41.7127 318.4016 15.08842816 24267,6917.871999999999,95.437,541.102,538.372,0.0
52873.0,STARLINK-4211,PAYLOAD,2022-11-21 23:23:42,15.08833424,0.0001723,53.2195,17.8057,51.29,308.8246,-9.0311e-06,-4.32e-06,0.0,0 STARLINK-4211,1 52873U 22062AV  22325.97479595 -.00000432  00000-0 -90311-5 0  9996,2 52873  53.2195  17.8057 0001723  51.2900 308.8246 15.08833424 24836,6917.9,95.438,540.957,538.5740000000002,0.0
52873.0,STARLINK-4211,PAYLOAD,2022-11-22 10:31:24,15.08836656,0.0002164,53.2196,15.7262,32.6564,327.4561,1.2457e-05,-9.000000000000002e-07,0.0,0 STARLINK-4211,1 52873U 22062AV  22326.43847553 -.00000090  00000-0  12457-4 0  9994,2 52873  53.2196  15.7262 0002164  32.6564 327.4561 15.08836656 24412,6917.891,95.438,541.253,538.259,0.0
52873.0,STARLINK-4211,PAYLOAD,2022-11-22 23:14:30,15.08825958,0.0002414,53.2197,13.3494,35.6171,324.4982,-1.2325e-05,-4.84e-06,0.0,0 STARLINK-4211,1 52873U 22062AV  22326.96840632 -.00000484  00000-0 -12325-4 0  9995,2 52873  53.2197  13.3494 0002414  35.6171 324.4982 15.08825958 24988,6917.9230000000025,95.438,541.4580000000002,538.118,0.0
52873.0,STARLINK-4211,PAYLOAD,2022-11-23 11:57:34,15.08839832,0.0002091,53.2191,10.9673,42.2978,317.8175,3.6405e-05,2.91e-06,0.0,0 STARLINK-4211,1 52873U 22062AV  22327.49831733  .00000291  00000-0  36405-4 0  9995,2 52873  53.2191  10.9673 0002091  42.2978 317.8175 15.08839832 25060,6917.880999999999,95.438,541.192,538.299,0.0
52873.0,STARLINK-4211,PAYLOAD,2022-11-24 10:12:58,15.08837374,0.0002233,53.2183,6.8029,40.0303,320.0853,-1.4884e-05,-5.25e-06,0.0,0 STARLINK-4211,1 52873U 22062AV  22328.42568094 -.00000525  00000-0 -14884-4 0  9995,2 52873  53.2183   6.8029 0002233  40.0303 320.0853 15.08837374 24715,6917.888000000001,95.438,541.298,538.2090000000002,0.0
52873.0,STARLINK-4211,PAYLOAD,2022-11-24 19:45:17,15.0883786,0.0002178,53.2184,5.0188,40.774,319.3415,0.00010543,1.39e-05,0.0,0 STARLINK-4211,1 52873U 22062AV  22328.82311665  .00001390  00000-0  10543-3 0  9995,2 52873  53.2184   5.0188 0002178  40.7740 319.3415 15.08837860 25269,6917.887,95.438,541.259,538.245,0.0
52873.0,STARLINK-4211,PAYLOAD,2022-11-25 11:39:08,15.08840536,0.0002184,53.2189,2.0446,39.1367,320.9783,-2.6406e-05,-7.09e-06,0.0,0 STARLINK-4211,1 52873U 22062AV  22329.48551987 -.00000709  00000-0 -26406-4 0  9992,2 52873  53.2189   2.0446 0002184  39.1367 320.9783 15.08840536 24878,6917.879,95.438,541.255,538.2330000000002,0.0
52873.0,STARLINK-4211,PAYLOAD,2022-11-25 19:36:04,15.08845392,0.0002157,53.2194,0.5589,39.9039,320.2111,3.8349e-05,3.22e-06,0.0,0 STARLINK-4211,1 52873U 22062AV  22329.81671430  .00000322  00000-0  38349-4 0  9993,2 52873  53.2194   0.5589 0002157  39.9039 320.2111 15.08845392 24928,6917.864000000001,95.437,541.221,538.237,0.0
52873.0,STARLINK-4211,PAYLOAD,2022-11-26 08:19:08,15.08843513,0.0002176,53.2191,358.1805,41.4008,318.7149,8.612299999999999e-05,1.083e-05,0.0,0 STARLINK-4211,1 52873U 22062AV  22330.34663162  .00001083  00000-0  86123-4 0  9994,2 52873  53.2191 358.1805 0002176  41.4008 318.7149 15.08843513 25492,6917.87,95.437,541.24,538.229,0.0
52873.0,STARLINK-4211,PAYLOAD,2022-11-26 11:29:55,15.088424,0.0002288,53.2195,357.5856,38.351,321.7645,5.670100000000001e-05,6.14e-06,0.0,0 STARLINK-4211,1 52873U 22062AV  22330.47911313  .00000614  00000-0  56701-4 0  9990,2 52873  53.2195 357.5856 0002288  38.3510 321.7645 15.08842400 25020,6917.873000000001,95.437,541.321,538.155,0.0
52873.0,STARLINK-4211,PAYLOAD,2022-11-26 19:26:50,15.08853073,0.0002214,53.2195,356.0988,40.1129,320.0027,-8.3367e-05,-1.615e-05,0.0,0 STARLINK-4211,1 52873U 22062AV  22330.81030924 -.00001615  00000-0 -83367-4 0  9990,2 52873  53.2195 356.0988 0002214  40.1129 320.0027 15.08853073 25075,6917.84,95.437,541.237,538.174,0.0
52873.0,STARLINK-4211,PAYLOAD,2022-11-27 08:09:56,15.08842124,0.0002141,53.2195,353.7199,40.3053,319.8097,1.5516e-05,-4.1e-07,0.0,0 STARLINK-4211,1 52873U 22062AV  22331.34023155 -.00000041  00000-0  15516-4 0  9999,2 52873  53.2195 353.7199 0002141  40.3053 319.8097 15.08842124 25157,6917.874,95.437,541.22,538.258,0.0
52873.0,STARLINK-4211,PAYLOAD,2022-11-28 01:39:11,15.08831247,0.0002199,53.2189,350.4494,39.4565,320.6587,-0.00010248,-1.919e-05,0.0,0 STARLINK-4211,1 52873U 22062AV  22332.06888405 -.00001919  00000-0 -10248-3 0  9998,2 52873  53.2189 350.4494 0002199  39.4565 320.6587 15.08831247 25756,6917.906999999997,95.438,541.293,538.251,0.0
52873.0,STARLINK-4211,PAYLOAD,2022-11-28 08:00:43,15.08835263,0.0002203,53.2179,349.2596,38.7537,321.3613,-5.2773e-06,-3.72e-06,0.0,0 STARLINK-4211,1 52873U 22062AV  22332.33383852 -.00000372  00000-0 -52773-5 0  9997,2 52873  53.2179 349.2596 0002203  38.7537 321.3613 15.08835263 25795,6917.895,95.438,541.284,538.236,0.0
52873.0,STARLINK-4211,PAYLOAD,2022-11-29 04:40:44,15.08834905,0.0002119,53.2198,345.3951,41.9727,318.1427,4.3754000000000005e-06,-2.19e-06,0.0,0 STARLINK-4211,1 52873U 22062AV  22333.19495988 -.00000219  00000-0  43754-5 0  9994,2 52873  53.2198 345.3951 0002119  41.9727 318.1427 15.08834905 25431,6917.896,95.438,541.227,538.295,0.0
